{
    "CCSDS_OMM_VERS": "3.0",
    "COMMENT": "GENERATED VIA SPACE-TRACK.ORG API",
    "CREATION_DATE": "2025-05-20T23:46:32",
    "ORIGINATOR": "18 SPCS",
    "OBJECT_NAME": "GALILEO 13 (26A)",
    "OBJECT_ID": "2016-030B",
    "CENTER_NAME": "EARTH",
    "REF_FRAME": "TEME",
    "TIME_SYSTEM": "UTC",
    "MEAN_ELEMENT_THEORY": "SGP4",
    "EPOCH": "2025-05-20T15:05:45.734784",
    "MEAN_MOTION": "1.70474109",
    "ECCENTRICITY": "0.00045730",
    "INCLINATION": "55.2211",
    "RA_OF_ASC_NODE": "232.4894",
    "ARG_OF_PERICENTER": "241.8754",
    "MEAN_ANOMALY": "118.1199",
    "EPHEMERIS_TYPE": "0",
    "CLASSIFICATION_TYPE": "U",
    "NORAD_CAT_ID": "41550",
    "ELEMENT_SET_NO": "999",
    "REV_AT_EPOCH": "5595",
    "BSTAR": "0.00000000000000",
    "MEAN_MOTION_DOT": "0.00000007",
    "MEAN_MOTION_DDOT": "0.0000000000000",
    "SEMIMAJOR_AXIS": "29600.307",
    "PERIOD": "844.703",
    "APOAPSIS": "23235.709",
    "PERIAPSIS": "23208.636",
    "OBJECT_TYPE": "PAYLOAD",
    "RCS_SIZE": "LARGE",
    "COUNTRY_CODE": "ESA",
    "LAUNCH_DATE": "2016-05-24",
    "SITE": "FRGUI",
    "DECAY_DATE": null,
    "FILE": "4734219",
    "GP_ID": "288022700",
    "TLE_LINE0": "0 GALILEO 13 (26A)",
    "TLE_LINE1": "1 41550U 16030B   25140.62900156  .00000007  00000-0  00000+0 0  9992",
    "TLE_LINE2": "2 41550  55.2211 232.4894 0004573 241.8754 118.1199  1.70474109 55952"
}